Corps du système solaire : Toro (Asteroid)
Époque : 2022-03-29T15:58:12.064 / +1000 / 1 Jour / UTC
Système de coordonnées (ICRF) : Héliocentre – Écliptique – Astrométrique J2000 – Cartésiennes
Options : INPOP19a
Éphémérides de position
Colonnes :
1: Date (undefined)
2: px (au)
3: py (au)
4: pz (au)
5: Dobs (au)
6: Phase (deg)
7: VMag (mag)
8: vx (au/d)
9: vy (au/d)
10: vz (au/d)
11: RV (km/s)
$$SOE
2460550.1654174076 -1.578443219681  -1.12029907516 -0.273672864822 1.954852897919 0 17.25  0.004605180738 -0.008048388478  0.000661163027   1.3876111
2460551.1654174076  -1.57380684139 -1.128325196905 -0.273006290887 1.955637532581 0 17.25  0.004667574574  -0.00800388343  0.000671984289    1.329526
2460552.1654174076 -1.569108197758 -1.136306683305  -0.27232891528 1.956388625221 0 17.25  0.004729710378 -0.007959114316  0.000682766242   1.2714568
2460553.1654174076 -1.564347546149 -1.144243270339 -0.271640777201  1.95710618483 0 17.26   0.00479158943 -0.007914081253  0.000693509094   1.2134029
2460554.1654174076  -1.55952514266 -1.152134694088 -0.270941915643 1.957790220009 0 17.26  0.004853212986 -0.007868784326   0.00070421305   1.1553636
2460555.1654174076 -1.554641242149 -1.159980690696   -0.2702323694 1.958440738968 0 17.26  0.004914582272 -0.007823223583  0.000714878309   1.0973381
2460556.1654174076 -1.549696098256 -1.167780996341 -0.269512177064 1.959057749519 0 17.26   0.00497569849  -0.00777739904  0.000725505068   1.0393259
2460557.1654174076 -1.544689963434 -1.175535347199 -0.268781377034  1.95964125908 0 17.26  0.005036562817 -0.007731310675   0.00073609352   0.9813262
2460558.1654174076 -1.539623088975 -1.183243479406 -0.268040007521  1.96019127467 0 17.26  0.005097176403 -0.007684958433  0.000746643852   0.9233383
2460559.1654174076 -1.534495725031 -1.190905129025 -0.267288106545 1.960707802906 0 17.26   0.00515754037 -0.007638342226   0.00075715625   0.8653615
2460560.1654174076 -1.529308120647 -1.198520032015 -0.266525711947 1.961190850006 0 17.27  0.005217655815 -0.007591461928  0.000767630894   0.8073952
2460561.1654174076 -1.524060523783 -1.206087924191 -0.265752861387 1.961640421782 0 17.27  0.005277523809 -0.007544317382  0.000778067961   0.7494386
2460562.1654174076 -1.518753181343 -1.213608541193 -0.264969592352 1.962056523643 0 17.27  0.005337145393 -0.007496908396  0.000788467625   0.6914911
2460563.1654174076 -1.513386339205 -1.221081618455 -0.264175942156 1.962439160594 0 17.27  0.005396521583 -0.007449234743  0.000798830054   0.6335519
2460564.1654174076 -1.507960242242 -1.228506891163 -0.263371947945 1.962788337234 0 17.27  0.005455653366 -0.007401296166  0.000809155415   0.5756203
2460565.1654174076 -1.502475134358 -1.235884094234 -0.262557646703 1.963104057758 0 17.27    0.0055145417 -0.007353092373   0.00081944387   0.5176957
2460566.1654174076 -1.496931258509 -1.243212962274 -0.261733075253 1.963386325956 0 17.27  0.005573187517 -0.007304623041  0.000829695576   0.4597773
2460567.1654174076 -1.491328856737 -1.250493229551 -0.260898270262 1.963635145213 0 17.27   0.00563159172 -0.007255887816  0.000839910687   0.4018644
2460568.1654174076 -1.485668170193 -1.257724629964 -0.260053268244 1.963850518514 0 17.27  0.005689755183 -0.007206886314  0.000850089355   0.3439564
2460569.1654174076 -1.479949439167 -1.264906897011 -0.259198105567  1.96403244844 0 17.27  0.005747678756 -0.007157618118  0.000860231726   0.2860525
2460570.1654174076 -1.474172903115 -1.272039763759 -0.258332818452 1.964180937172 0 17.27  0.005805363257 -0.007108082783  0.000870337941   0.2281521
2460571.1654174076 -1.468338800686 -1.279122962815  -0.25745744298 1.964295986492 0 17.27  0.005862809482 -0.007058279833   0.00088040814   0.1702544
2460572.1654174076  -1.46244736975 -1.286156226296 -0.256572015098  1.96437759778 0 17.27  0.005920018196 -0.007008208762  0.000890442456   0.1123588
2460573.1654174076 -1.456498847423 -1.293139285795 -0.255676570619 1.964425772019 0 17.27   0.00597699014 -0.006957869036  0.000900441019   0.0544646
2460574.1654174076 -1.450493470092 -1.300071872357 -0.254771145227 1.964440509792 0 17.27  0.006033726029 -0.006907260088  0.000910403956  -0.0034289
2460575.1654174076 -1.444431473446 -1.306953716445 -0.253855774485 1.964421811285 0 17.27  0.006090226549 -0.006856381323  0.000920331388  -0.0613224
2460576.1654174076 -1.438313092499 -1.313784547913 -0.252930493834 1.964369676283 0 17.27  0.006146492362 -0.006805232115  0.000930223433  -0.1192167
2460577.1654174076 -1.432138561616 -1.320564095972 -0.251995338601 1.964284104175 0 17.27  0.006202524104 -0.006753811807  0.000940080204  -0.1771123
2460578.1654174076 -1.425908114541 -1.327292089163 -0.251050343999  1.96416509395 0 17.27  0.006258322381 -0.006702119714  0.000949901812    -0.23501
2460579.1654174076 -1.419621984424 -1.333968255323 -0.250095545137 1.964012644197 0 17.27  0.006313887778 -0.006650155119   0.00095968836  -0.2929104
2460580.1654174076 -1.413280403843 -1.340592321559 -0.249130977018 1.963826753107 0 17.27  0.006369220848 -0.006597917274  0.000969439951  -0.3508143
2460581.1654174076 -1.406883604839 -1.347164014214 -0.248156674548 1.963607418473 0 17.27   0.00642432212 -0.006545405402   0.00097915668  -0.4087224
2460582.1654174076 -1.400431818934  -1.35368305884 -0.247172672539 1.963354637687 0 17.27  0.006479192095 -0.006492618694  0.000988838641  -0.4666352
2460583.1654174076 -1.393925277167 -1.360149180163 -0.246179005708 1.963068407742 0 17.27  0.006533831247 -0.006439556312  0.000998485923  -0.5245537
2460584.1654174076 -1.387364210112 -1.366562102055 -0.245175708692 1.962748725233 0 17.27  0.006588240024 -0.006386217385  0.001008098608  -0.5824783
2460585.1654174076 -1.380748847913 -1.372921547503  -0.24416281604 1.962395586356 0 17.27  0.006642418843 -0.006332601014  0.001017676778  -0.6404098
2460586.1654174076 -1.374079420309  -1.37922723858 -0.243140362228 1.962008986906 0 17.27  0.006696368097 -0.006278706268  0.001027220508   -0.698349
2460587.1654174076 -1.367356156661 -1.385478896411 -0.242108381654 1.961588922283 0 17.27  0.006750088148 -0.006224532186   0.00103672987  -0.7562964
2460588.1654174076 -1.360579285981 -1.391676241145 -0.241066908651 1.961135387487 0 17.27  0.006803579331 -0.006170077776   0.00104620493  -0.8142528
2460589.1654174076 -1.353749036962 -1.397818991923 -0.240015977483  1.96064837712 0 17.26  0.006856841954 -0.006115342015  0.001055645751  -0.8722189
2460590.1654174076 -1.346865638002 -1.403906866849 -0.238955622357 1.960127885388 0 17.26  0.006909876293 -0.006060323849  0.001065052393  -0.9301954
2460591.1654174076 -1.339929317239 -1.409939582957 -0.237885877422 1.959573906099 0 17.26  0.006962682597 -0.006005022196  0.001074424909  -0.9881828
2460592.1654174076 -1.332940302573 -1.415916856182 -0.236806776774 1.958986432666 0 17.26  0.007015261088 -0.005949435939  0.001083763348   -1.046182
2460593.1654174076 -1.325898821701 -1.421838401328 -0.235718354464 1.958365458108 0 17.26  0.007067611955 -0.005893563933  0.001093067755  -1.1041936
2460594.1654174076 -1.318805102144 -1.427703932037 -0.234620644499 1.957710975048 0 17.26  0.007119735361 -0.005837405001  0.001102338173  -1.1622183
2460595.1654174076 -1.311659371277 -1.433513160761 -0.233513680847 1.957022975715 0 17.26  0.007171631435 -0.005780957937  0.001111574635  -1.2202568
2460596.1654174076 -1.304461856357 -1.439265798727 -0.232397497443 1.956301451948 0 17.25  0.007223300279   -0.0057242215  0.001120777175  -1.2783097
2460597.1654174076 -1.297212784556 -1.444961555907 -0.231272128193 1.955546395191 0 17.25  0.007274741965 -0.005667194422  0.001129945819  -1.3363778
2460598.1654174076 -1.289912382992 -1.450600140989 -0.230137606979 1.954757796501 0 17.25  0.007325956533 -0.005609875401  0.001139080589  -1.3944616
2460599.1654174076 -1.282560878755 -1.456181261345  -0.22899396766 1.953935646542 0 17.25  0.007376943993 -0.005552263106  0.001148181502  -1.4525619
2460600.1654174076 -1.275158498942 -1.461704622996 -0.227841244084 1.953079935593 0 17.25  0.007427704323 -0.005494356172  0.001157248572  -1.5106794
2460601.1654174076 -1.267705470689 -1.467169930585 -0.226679470086 1.952190653545 0 17.25   0.00747823747 -0.005436153204  0.001166281807  -1.5688147
2460602.1654174076   -1.2602020212 -1.472576887345 -0.225508679495 1.951267789901 0 17.24  0.007528543349 -0.005377652777   0.00117528121  -1.6269685
2460603.1654174076 -1.252648377778 -1.477925195065 -0.224328906142 1.950311333784 0 17.24  0.007578621844  -0.00531885343  0.001184246778  -1.6851414
2460604.1654174076 -1.245044767861 -1.483214554058  -0.22314018386 1.949321273931 0 17.24  0.007628472806 -0.005259753674  0.001193178506  -1.7433341
2460605.1654174076 -1.237391419052 -1.488444663134 -0.221942546491 1.948297598699 0 17.24  0.007678096052 -0.005200351986  0.001202076381  -1.8015473
2460606.1654174076 -1.229688559154  -1.49361521956 -0.220736027892 1.947240296066 0 17.23  0.007727491368 -0.005140646812  0.001210940388  -1.8597816
2460607.1654174076 -1.221936416198 -1.498725919036 -0.219520661941 1.946149353631 0 17.23  0.007776658505 -0.005080636565  0.001219770503  -1.9180377
2460608.1654174076 -1.214135218486 -1.503776455655 -0.218296482537 1.945024758618 0 17.23  0.007825597181 -0.005020319625    0.0012285667  -1.9763162
2460609.1654174076 -1.206285194614 -1.508766521878 -0.217063523611 1.943866497876 0 17.23  0.007874307079  -0.00495969434  0.001237328947  -2.0346178
2460610.1654174076 -1.198386573515 -1.513695808494 -0.215821819129 1.942674557883 0 17.22  0.007922787848 -0.004898759026  0.001246057206  -2.0929431
2460611.1654174076 -1.190439584491 -1.518564004591 -0.214571403096 1.941448924744 0 17.22  0.007971039102 -0.004837511964  0.001254751433  -2.1512927
2460612.1654174076 -1.182444457247 -1.523370797525 -0.213312309565   1.9401895842 0 17.22  0.008019060419 -0.004775951403  0.001263411582  -2.2096673
$$EOE
